YAM-7                   
1 60504U 24149AN  26068.71799904  .00009009  00000+0  30984-3 0  9997
2 60504  97.3828 149.4631 0001973 296.5121  63.5918 15.30304554 86835
STARLINK-32865          
1 62952U 25029E   26068.72441104  .00025974  00000+0  88601-3 0  9999
2 62952  53.1590 232.2423 0000855  75.4420 284.6676 15.30200671 61334
